{
  "type": "FeatureCollection",
  "features": [
    {
      "type": "Feature",
      "properties": {
        "norad_id": 64751,
        "name": "PROGRESS-MS 31",
        "group": "stations",
        "lat": NaN,
        "lon": NaN,
        "alt_km": NaN,
        "timestamp": "2025-12-01T02:46:51.966267+00:00",
        "meta": {
          "OBJECT_NAME": "PROGRESS-MS 31",
          "OBJECT_ID": "2025-146A",
          "EPOCH": "2025-11-30T13:03:31.260384",
          "MEAN_MOTION": 15.49206888,
          "ECCENTRICITY": 0.00036901,
          "INCLINATION": 51.6312,
          "RA_OF_ASC_NODE": 202.8529,
          "ARG_OF_PERICENTER": 187.0517,
          "MEAN_ANOMALY": 173.042,
          "EPHEMERIS_TYPE": 0,
          "CLASSIFICATION_TYPE": "U",
          "NORAD_CAT_ID": 64751,
          "ELEMENT_SET_NO": 999,
          "REV_AT_EPOCH": 675,
          "BSTAR": 0.00015180088,
          "MEAN_MOTION_DOT": 7.982e-05,
          "MEAN_MOTION_DDOT": 0
        }
      },
      "geometry": {
        "type": "Point",
        "coordinates": [
          NaN,
          NaN
        ]
      }
    },
    {
      "type": "Feature",
      "properties": {
        "norad_id": 64786,
        "name": "TIANZHOU-9",
        "group": "stations",
        "lat": NaN,
        "lon": NaN,
        "alt_km": NaN,
        "timestamp": "2025-12-01T02:46:51.966285+00:00",
        "meta": {
          "OBJECT_NAME": "TIANZHOU-9",
          "OBJECT_ID": "2025-149A",
          "EPOCH": "2025-11-30T14:32:09.181248",
          "MEAN_MOTION": 15.58433763,
          "ECCENTRICITY": 0.00104995,
          "INCLINATION": 41.4666,
          "RA_OF_ASC_NODE": 90.3296,
          "ARG_OF_PERICENTER": 300.6819,
          "MEAN_ANOMALY": 59.2984,
          "EPHEMERIS_TYPE": 0,
          "CLASSIFICATION_TYPE": "U",
          "NORAD_CAT_ID": 64786,
          "ELEMENT_SET_NO": 999,
          "REV_AT_EPOCH": 25530,
          "BSTAR": 0.00021218928,
          "MEAN_MOTION_DOT": 0.00016368,
          "MEAN_MOTION_DDOT": 0
        }
      },
      "geometry": {
        "type": "Point",
        "coordinates": [
          NaN,
          NaN
        ]
      }
    },
    {
      "type": "Feature",
      "properties": {
        "norad_id": 65077,
        "name": "CREW DRAGON 11",
        "group": "stations",
        "lat": NaN,
        "lon": NaN,
        "alt_km": NaN,
        "timestamp": "2025-12-01T02:46:51.966302+00:00",
        "meta": {
          "OBJECT_NAME": "CREW DRAGON 11",
          "OBJECT_ID": "2025-166A",
          "EPOCH": "2025-11-30T13:03:31.260384",
          "MEAN_MOTION": 15.49206888,
          "ECCENTRICITY": 0.00036901,
          "INCLINATION": 51.6312,
          "RA_OF_ASC_NODE": 202.8529,
          "ARG_OF_PERICENTER": 187.0517,
          "MEAN_ANOMALY": 173.042,
          "EPHEMERIS_TYPE": 0,
          "CLASSIFICATION_TYPE": "U",
          "NORAD_CAT_ID": 65077,
          "ELEMENT_SET_NO": 999,
          "REV_AT_EPOCH": 214,
          "BSTAR": 0.00015180088,
          "MEAN_MOTION_DOT": 7.982e-05,
          "MEAN_MOTION_DDOT": 0
        }
      },
      "geometry": {
        "type": "Point",
        "coordinates": [
          NaN,
          NaN
        ]
      }
    },
    {
      "type": "Feature",
      "properties": {
        "norad_id": 65304,
        "name": "DRAGON CRS-33",
        "group": "stations",
        "lat": NaN,
        "lon": NaN,
        "alt_km": NaN,
        "timestamp": "2025-12-01T02:46:51.966319+00:00",
        "meta": {
          "OBJECT_NAME": "DRAGON CRS-33",
          "OBJECT_ID": "2025-186A",
          "EPOCH": "2025-11-30T13:03:31.260384",
          "MEAN_MOTION": 15.49206888,
          "ECCENTRICITY": 0.00036901,
          "INCLINATION": 51.6312,
          "RA_OF_ASC_NODE": 202.8529,
          "ARG_OF_PERICENTER": 187.0517,
          "MEAN_ANOMALY": 173.042,
          "EPHEMERIS_TYPE": 0,
          "CLASSIFICATION_TYPE": "U",
          "NORAD_CAT_ID": 65304,
          "ELEMENT_SET_NO": 999,
          "REV_AT_EPOCH": 11,
          "BSTAR": 0.00015180088,
          "MEAN_MOTION_DOT": 7.982e-05,
          "MEAN_MOTION_DDOT": 0
        }
      },
      "geometry": {
        "type": "Point",
        "coordinates": [
          NaN,
          NaN
        ]
      }
    },
    {
      "type": "Feature",
      "properties": {
        "norad_id": 65586,
        "name": "PROGRESS-MS 32",
        "group": "stations",
        "lat": NaN,
        "lon": NaN,
        "alt_km": NaN,
        "timestamp": "2025-12-01T02:46:51.966336+00:00",
        "meta": {
          "OBJECT_NAME": "PROGRESS-MS 32",
          "OBJECT_ID": "2025-204A",
          "EPOCH": "2025-11-30T13:03:31.260384",
          "MEAN_MOTION": 15.49206888,
          "ECCENTRICITY": 0.00036901,
          "INCLINATION": 51.6312,
          "RA_OF_ASC_NODE": 202.8529,
          "ARG_OF_PERICENTER": 187.0517,
          "MEAN_ANOMALY": 173.042,
          "EPHEMERIS_TYPE": 0,
          "CLASSIFICATION_TYPE": "U",
          "NORAD_CAT_ID": 65586,
          "ELEMENT_SET_NO": 999,
          "REV_AT_EPOCH": 27,
          "BSTAR": 0.00015180088,
          "MEAN_MOTION_DOT": 7.982e-05,
          "MEAN_MOTION_DDOT": 0
        }
      },
      "geometry": {
        "type": "Point",
        "coordinates": [
          NaN,
          NaN
        ]
      }
    },
    {
      "type": "Feature",
      "properties": {
        "norad_id": 65616,
        "name": "CYGNUS NG-23",
        "group": "stations",
        "lat": NaN,
        "lon": NaN,
        "alt_km": NaN,
        "timestamp": "2025-12-01T02:46:51.966353+00:00",
        "meta": {
          "OBJECT_NAME": "CYGNUS NG-23",
          "OBJECT_ID": "2025-208A",
          "EPOCH": "2025-11-30T13:03:31.260384",
          "MEAN_MOTION": 15.49206888,
          "ECCENTRICITY": 0.00036901,
          "INCLINATION": 51.6312,
          "RA_OF_ASC_NODE": 202.8529,
          "ARG_OF_PERICENTER": 187.0517,
          "MEAN_ANOMALY": 173.042,
          "EPHEMERIS_TYPE": 0,
          "CLASSIFICATION_TYPE": "U",
          "NORAD_CAT_ID": 65616,
          "ELEMENT_SET_NO": 999,
          "REV_AT_EPOCH": 22,
          "BSTAR": 0.00015180088,
          "MEAN_MOTION_DOT": 7.982e-05,
          "MEAN_MOTION_DDOT": 0
        }
      },
      "geometry": {
        "type": "Point",
        "coordinates": [
          NaN,
          NaN
        ]
      }
    },
    {
      "type": "Feature",
      "properties": {
        "norad_id": 65729,
        "name": "DRAGONFLY",
        "group": "stations",
        "lat": NaN,
        "lon": NaN,
        "alt_km": NaN,
        "timestamp": "2025-12-01T02:46:51.966371+00:00",
        "meta": {
          "OBJECT_NAME": "DRAGONFLY",
          "OBJECT_ID": "1998-067XH",
          "EPOCH": "2025-11-30T01:36:53.129376",
          "MEAN_MOTION": 15.67290907,
          "ECCENTRICITY": 0.00064505,
          "INCLINATION": 51.6265,
          "RA_OF_ASC_NODE": 200.4173,
          "ARG_OF_PERICENTER": 201.229,
          "MEAN_ANOMALY": 158.8439,
          "EPHEMERIS_TYPE": 0,
          "CLASSIFICATION_TYPE": "U",
          "NORAD_CAT_ID": 65729,
          "ELEMENT_SET_NO": 999,
          "REV_AT_EPOCH": 1117,
          "BSTAR": 0.0012301051,
          "MEAN_MOTION_DOT": 0.00136962,
          "MEAN_MOTION_DDOT": 0
        }
      },
      "geometry": {
        "type": "Point",
        "coordinates": [
          NaN,
          NaN
        ]
      }
    },
    {
      "type": "Feature",
      "properties": {
        "norad_id": 65730,
        "name": "1998-067XJ",
        "group": "stations",
        "lat": NaN,
        "lon": NaN,
        "alt_km": NaN,
        "timestamp": "2025-12-01T02:46:51.966388+00:00",
        "meta": {
          "OBJECT_NAME": "1998-067XJ",
          "OBJECT_ID": "1998-067XJ",
          "EPOCH": "2025-11-30T18:44:28.007808",
          "MEAN_MOTION": 16.07771346,
          "ECCENTRICITY": 0.0011096,
          "INCLINATION": 51.6135,
          "RA_OF_ASC_NODE": 191.6004,
          "ARG_OF_PERICENTER": 229.1502,
          "MEAN_ANOMALY": 130.855,
          "EPHEMERIS_TYPE": 0,
          "CLASSIFICATION_TYPE": "U",
          "NORAD_CAT_ID": 65730,
          "ELEMENT_SET_NO": 999,
          "REV_AT_EPOCH": 1135,
          "BSTAR": 0.0026017,
          "MEAN_MOTION_DOT": 0.02083121,
          "MEAN_MOTION_DDOT": 0.0036478
        }
      },
      "geometry": {
        "type": "Point",
        "coordinates": [
          NaN,
          NaN
        ]
      }
    }
  ]
}